CCSDS_OMM_VERS = 2.0
CREATION_DATE  = 
ORIGINATOR     = 

OBJECT_NAME    = SL-3 R/B
OBJECT_ID      = 1982-079B
CENTER_NAME    = EARTH
REF_FRAME      = TEME
TIME_SYSTEM    = UTC
MEAN_ELEMENT_THEORY = SGP/SGP4

EPOCH          = 2025-12-20T08:45:07.124256
MEAN_MOTION    = 15.23670311
ECCENTRICITY   = .0027072
INCLINATION    = 81.1478
RA_OF_ASC_NODE = 286.6722
ARG_OF_PERICENTER = 74.6094
MEAN_ANOMALY   = 285.8126

EPHEMERIS_TYPE = 0
CLASSIFICATION_TYPE = U
NORAD_CAT_ID   = 13403
ELEMENT_SET_NO = 999
REV_AT_EPOCH   = 36561
BSTAR          = .1996E-3
MEAN_MOTION_DOT = .4862E-4
MEAN_MOTION_DDOT = 0

CCSDS_OMM_VERS = 2.0
CREATION_DATE  = 
ORIGINATOR     = 

OBJECT_NAME    = SL-14 R/B
OBJECT_ID      = 1982-092B
CENTER_NAME    = EARTH
REF_FRAME      = TEME
TIME_SYSTEM    = UTC
MEAN_ELEMENT_THEORY = SGP/SGP4

EPOCH          = 2025-12-20T08:59:52.472832
MEAN_MOTION    = 14.86562324
ECCENTRICITY   = .0019736
INCLINATION    = 82.5675
RA_OF_ASC_NODE = 215.5713
ARG_OF_PERICENTER = 200.5011
MEAN_ANOMALY   = 332.4404

EPHEMERIS_TYPE = 0
CLASSIFICATION_TYPE = U
NORAD_CAT_ID   = 13553
ELEMENT_SET_NO = 999
REV_AT_EPOCH   = 31714
BSTAR          = .36296E-4
MEAN_MOTION_DOT = .347E-5
MEAN_MOTION_DDOT = 0

CCSDS_OMM_VERS = 2.0
CREATION_DATE  = 
ORIGINATOR     = 

OBJECT_NAME    = SL-3 R/B
OBJECT_ID      = 1983-010B
CENTER_NAME    = EARTH
REF_FRAME      = TEME
TIME_SYSTEM    = UTC
MEAN_ELEMENT_THEORY = SGP/SGP4

EPOCH          = 2025-12-20T07:00:13.540896
MEAN_MOTION    = 15.43649117
ECCENTRICITY   = .001677
INCLINATION    = 81.1052
RA_OF_ASC_NODE = 99.4000
ARG_OF_PERICENTER = 324.3804
MEAN_ANOMALY   = 35.6319

EPHEMERIS_TYPE = 0
CLASSIFICATION_TYPE = U
NORAD_CAT_ID   = 13819
ELEMENT_SET_NO = 999
REV_AT_EPOCH   = 34568
BSTAR          = .22921E-3
MEAN_MOTION_DOT = .10406E-3
MEAN_MOTION_DDOT = 0

CCSDS_OMM_VERS = 2.0
CREATION_DATE  = 
ORIGINATOR     = 

OBJECT_NAME    = SL-3 R/B
OBJECT_ID      = 1983-075B
CENTER_NAME    = EARTH
REF_FRAME      = TEME
TIME_SYSTEM    = UTC
MEAN_ELEMENT_THEORY = SGP/SGP4

EPOCH          = 2025-12-20T11:21:48.939840
MEAN_MOTION    = 15.36279663
ECCENTRICITY   = .0023573
INCLINATION    = 97.6099
RA_OF_ASC_NODE = 351.2171
ARG_OF_PERICENTER = 148.4270
MEAN_ANOMALY   = 211.8393

EPHEMERIS_TYPE = 0
CLASSIFICATION_TYPE = U
NORAD_CAT_ID   = 14208
ELEMENT_SET_NO = 999
REV_AT_EPOCH   = 31798
BSTAR          = .20438E-3
MEAN_MOTION_DOT = .7206E-4
MEAN_MOTION_DDOT = 0

CCSDS_OMM_VERS = 2.0
CREATION_DATE  = 
ORIGINATOR     = 

OBJECT_NAME    = COSMOS 1536
OBJECT_ID      = 1984-013A
CENTER_NAME    = EARTH
REF_FRAME      = TEME
TIME_SYSTEM    = UTC
MEAN_ELEMENT_THEORY = SGP/SGP4

EPOCH          = 2025-12-20T11:53:46.829760
MEAN_MOTION    = 15.22601034
ECCENTRICITY   = .0014094
INCLINATION    = 82.5438
RA_OF_ASC_NODE = 186.4717
ARG_OF_PERICENTER = 196.4282
MEAN_ANOMALY   = 163.6500

EPHEMERIS_TYPE = 0
CLASSIFICATION_TYPE = U
NORAD_CAT_ID   = 14699
ELEMENT_SET_NO = 999
REV_AT_EPOCH   = 26056
BSTAR          = .20949E-3
MEAN_MOTION_DOT = .4912E-4
MEAN_MOTION_DDOT = 0

CCSDS_OMM_VERS = 2.0
CREATION_DATE  = 
ORIGINATOR     = 

OBJECT_NAME    = SL-14 R/B
OBJECT_ID      = 1984-027B
CENTER_NAME    = EARTH
REF_FRAME      = TEME
TIME_SYSTEM    = UTC
MEAN_ELEMENT_THEORY = SGP/SGP4

EPOCH          = 2025-12-20T07:11:47.090976
MEAN_MOTION    = 14.85881876
ECCENTRICITY   = .0016598
INCLINATION    = 82.5417
RA_OF_ASC_NODE = 319.4660
ARG_OF_PERICENTER = 233.4887
MEAN_ANOMALY   = 126.4802

EPHEMERIS_TYPE = 0
CLASSIFICATION_TYPE = U
NORAD_CAT_ID   = 14820
ELEMENT_SET_NO = 999
REV_AT_EPOCH   = 23584
BSTAR          = .41835E-4
MEAN_MOTION_DOT = .389E-5
MEAN_MOTION_DDOT = 0

CCSDS_OMM_VERS = 2.0
CREATION_DATE  = 
ORIGINATOR     = 

OBJECT_NAME    = SL-8 R/B
OBJECT_ID      = 1985-006B
CENTER_NAME    = EARTH
REF_FRAME      = TEME
TIME_SYSTEM    = UTC
MEAN_ELEMENT_THEORY = SGP/SGP4

EPOCH          = 2025-12-20T06:25:15.932064
MEAN_MOTION    = 14.37725212
ECCENTRICITY   = .001903
INCLINATION    = 74.0463
RA_OF_ASC_NODE = 47.2852
ARG_OF_PERICENTER = 337.8294
MEAN_ANOMALY   = 89.9608

EPHEMERIS_TYPE = 0
CLASSIFICATION_TYPE = U
NORAD_CAT_ID   = 15483
ELEMENT_SET_NO = 999
REV_AT_EPOCH   = 14261
BSTAR          = .72888E-4
MEAN_MOTION_DOT = .193E-5
MEAN_MOTION_DDOT = 0

CCSDS_OMM_VERS = 2.0
CREATION_DATE  = 
ORIGINATOR     = 

OBJECT_NAME    = SL-12 R/B(2)
OBJECT_ID      = 1985-042D
CENTER_NAME    = EARTH
REF_FRAME      = TEME
TIME_SYSTEM    = UTC
MEAN_ELEMENT_THEORY = SGP/SGP4

EPOCH          = 2025-12-20T03:23:51.592704
MEAN_MOTION    = 14.21954081
ECCENTRICITY   = .00374311
INCLINATION    = 71.1076
RA_OF_ASC_NODE = 255.7832
ARG_OF_PERICENTER = 250.6439
MEAN_ANOMALY   = 217.5104

EPHEMERIS_TYPE = 0
CLASSIFICATION_TYPE = U
NORAD_CAT_ID   = 15772
ELEMENT_SET_NO = 999
REV_AT_EPOCH   = 10308
BSTAR          = .79747185E-4
MEAN_MOTION_DOT = .129E-5
MEAN_MOTION_DDOT = 0

CCSDS_OMM_VERS = 2.0
CREATION_DATE  = 
ORIGINATOR     = 

OBJECT_NAME    = SL-14 R/B
OBJECT_ID      = 1985-069B
CENTER_NAME    = EARTH
REF_FRAME      = TEME
TIME_SYSTEM    = UTC
MEAN_ELEMENT_THEORY = SGP/SGP4

EPOCH          = 2025-12-20T07:24:41.647104
MEAN_MOTION    = 14.86332672
ECCENTRICITY   = .0020349
INCLINATION    = 82.5273
RA_OF_ASC_NODE = 99.5876
ARG_OF_PERICENTER = 95.2349
MEAN_ANOMALY   = 265.1191

EPHEMERIS_TYPE = 0
CLASSIFICATION_TYPE = U
NORAD_CAT_ID   = 15945
ELEMENT_SET_NO = 999
REV_AT_EPOCH   = 16104
BSTAR          = .4502E-4
MEAN_MOTION_DOT = .423E-5
MEAN_MOTION_DDOT = 0

CCSDS_OMM_VERS = 2.0
CREATION_DATE  = 
ORIGINATOR     = 

OBJECT_NAME    = SL-16 R/B
OBJECT_ID      = 1985-097B
CENTER_NAME    = EARTH
REF_FRAME      = TEME
TIME_SYSTEM    = UTC
MEAN_ELEMENT_THEORY = SGP/SGP4

EPOCH          = 2025-12-20T08:31:21.654336
MEAN_MOTION    = 14.16587780
ECCENTRICITY   = .0007189
INCLINATION    = 71.0037
RA_OF_ASC_NODE = 307.5702
ARG_OF_PERICENTER = 358.4598
MEAN_ANOMALY   = 164.5039

EPHEMERIS_TYPE = 0
CLASSIFICATION_TYPE = U
NORAD_CAT_ID   = 16182
ELEMENT_SET_NO = 999
REV_AT_EPOCH   = 7599
BSTAR          = .28227E-4
MEAN_MOTION_DOT = .8E-7
MEAN_MOTION_DDOT = 0

CCSDS_OMM_VERS = 2.0
CREATION_DATE  = 
ORIGINATOR     = 

OBJECT_NAME    = SL-14 R/B
OBJECT_ID      = 1986-006B
CENTER_NAME    = EARTH
REF_FRAME      = TEME
TIME_SYSTEM    = UTC
MEAN_ELEMENT_THEORY = SGP/SGP4

EPOCH          = 2025-12-20T10:33:50.947200
MEAN_MOTION    = 14.86680766
ECCENTRICITY   = .0076843
INCLINATION    = 82.5267
RA_OF_ASC_NODE = 334.3051
ARG_OF_PERICENTER = 174.1951
MEAN_ANOMALY   = 186.0176

EPHEMERIS_TYPE = 0
CLASSIFICATION_TYPE = U
NORAD_CAT_ID   = 16496
ELEMENT_SET_NO = 999
REV_AT_EPOCH   = 13743
BSTAR          = .43806E-4
MEAN_MOTION_DOT = .438E-5
MEAN_MOTION_DDOT = 0

CCSDS_OMM_VERS = 2.0
CREATION_DATE  = 
ORIGINATOR     = 

OBJECT_NAME    = COSMOS 1743
OBJECT_ID      = 1986-034A
CENTER_NAME    = EARTH
REF_FRAME      = TEME
TIME_SYSTEM    = UTC
MEAN_ELEMENT_THEORY = SGP/SGP4

EPOCH          = 2025-12-20T10:53:55.745952
MEAN_MOTION    = 15.52555617
ECCENTRICITY   = .0004909
INCLINATION    = 82.5341
RA_OF_ASC_NODE = 156.5765
ARG_OF_PERICENTER = 219.7003
MEAN_ANOMALY   = 140.3891

EPHEMERIS_TYPE = 0
CLASSIFICATION_TYPE = U
NORAD_CAT_ID   = 16719
ELEMENT_SET_NO = 999
REV_AT_EPOCH   = 16793
BSTAR          = .35069E-3
MEAN_MOTION_DOT = .21587E-3
MEAN_MOTION_DDOT = 0

