SL-3 R/B                
1 13403U 82079B   25354.36466579  .00004862  00000+0  19960-3 0  9999
2 13403  81.1478 286.6722 0027072  74.6094 285.8126 15.23670311365615
SL-14 R/B               
1 13553U 82092B   25354.37491288  .00000347  00000+0  36296-4 0  9992
2 13553  82.5675 215.5713 0019736 200.5011 332.4404 14.86562324317148
SL-3 R/B                
1 13819U 83010B   25354.29182339  .00010406  00000+0  22921-3 0  9999
2 13819  81.1052  99.4000 0016770 324.3804  35.6319 15.43649117345682
SL-3 R/B                
1 14208U 83075B   25354.47348310  .00007206  00000+0  20438-3 0  9991
2 14208  97.6099 351.2171 0023573 148.4270 211.8393 15.36279663317986
COSMOS 1536             
1 14699U 84013A   25354.49568090  .00004912  00000+0  20949-3 0  9997
2 14699  82.5438 186.4717 0014094 196.4282 163.6500 15.22601034260569
SL-14 R/B               
1 14820U 84027B   25354.29985059  .00000389  00000+0  41835-4 0  9996
2 14820  82.5417 319.4660 0016598 233.4887 126.4802 14.85881876235848
SL-8 R/B                
1 15483U 85006B   25354.26754551  .00000193  00000+0  72888-4 0  9993
2 15483  74.0463  47.2852 0019030 337.8294  89.9608 14.37725212142612
SL-12 R/B(2)            
1 15772U 85042D   25354.14156936  .00000129  00000+0  79747-4 0  9994
2 15772  71.1076 255.7832 0037431 250.6439 217.5104 14.21954081103082
SL-14 R/B               
1 15945U 85069B   25354.30881536  .00000423  00000+0  45020-4 0  9998
2 15945  82.5273  99.5876 0020349  95.2349 265.1191 14.86332672161046
SL-16 R/B               
1 16182U 85097B   25354.35511174  .00000008  00000+0  28227-4 0  9995
2 16182  71.0037 307.5702 0007189 358.4598 164.5039 14.16587780 75994
SL-14 R/B               
1 16496U 86006B   25354.44017300  .00000438  00000+0  43806-4 0  9993
2 16496  82.5267 334.3051 0076843 174.1951 186.0176 14.86680766137432
COSMOS 1743             
1 16719U 86034A   25354.45411743  .00021587  00000+0  35069-3 0  9991
2 16719  82.5341 156.5765 0004909 219.7003 140.3891 15.52555617167932
